{
  "type": "FeatureCollection",
  "features": [
    {
      "type": "Feature",
      "properties": {
        "norad_id": 66573,
        "name": "STARLINK-35650",
        "group": "last-30-days",
        "lat": -14.349277687496457,
        "lon": -28.327294399516454,
        "alt_km": 416.50072226174416,
        "timestamp": "2025-12-10T05:46:12.575712+00:00",
        "meta_object_name": "STARLINK-35650",
        "meta_object_id": "2025-268S",
        "meta_epoch": "2025-12-09T20:00:01.999008",
        "meta_mean_motion": 15.50586027,
        "meta_eccentricity": 0.0002387,
        "meta_inclination": 43.0003,
        "meta_ra_of_asc_node": 138.1209,
        "meta_arg_of_pericenter": 287.9959,
        "meta_mean_anomaly": 158.2698,
        "meta_ephemeris_type": 0,
        "meta_classification_type": "U",
        "meta_norad_cat_id": 66573,
        "meta_element_set_no": 999,
        "meta_rev_at_epoch": 420,
        "meta_bstar": -0.00053631,
        "meta_mean_motion_dot": -0.00031688,
        "meta_mean_motion_ddot": 0,
        "tle_line1": "1 66573U 25268S   25343.83335647 -.00031688  00000+0 -53631-3 0  9994",
        "tle_line2": "2 66573  43.0003 138.1209 0002387 287.9959 158.2698 15.50586027  4206"
      },
      "geometry": {
        "type": "Point",
        "coordinates": [
          -28.327294399516454,
          -14.349277687496457
        ]
      }
    },
    {
      "type": "Feature",
      "properties": {
        "norad_id": 66574,
        "name": "STARLINK-35812",
        "group": "last-30-days",
        "lat": -15.597934087225337,
        "lon": -26.833627027463287,
        "alt_km": 416.26007695935095,
        "timestamp": "2025-12-10T05:46:12.575725+00:00",
        "meta_object_name": "STARLINK-35812",
        "meta_object_id": "2025-268T",
        "meta_epoch": "2025-12-09T20:00:01.999008",
        "meta_mean_motion": 15.50598341,
        "meta_eccentricity": 0.0002124,
        "meta_inclination": 43.0002,
        "meta_ra_of_asc_node": 138.1155,
        "meta_arg_of_pericenter": 274.7694,
        "meta_mean_anomaly": 173.4,
        "meta_ephemeris_type": 0,
        "meta_classification_type": "U",
        "meta_norad_cat_id": 66574,
        "meta_element_set_no": 999,
        "meta_rev_at_epoch": 420,
        "meta_bstar": -0.00089676,
        "meta_mean_motion_dot": -0.00052637,
        "meta_mean_motion_ddot": 0,
        "tle_line1": "1 66574U 25268T   25343.83335647 -.00052637  00000+0 -89676-3 0  9990",
        "tle_line2": "2 66574  43.0002 138.1155 0002124 274.7694 173.4000 15.50598341  4203"
      },
      "geometry": {
        "type": "Point",
        "coordinates": [
          -26.833627027463287,
          -15.597934087225337
        ]
      }
    },
    {
      "type": "Feature",
      "properties": {
        "norad_id": 66575,
        "name": "STARLINK-35810",
        "group": "last-30-days",
        "lat": -16.84381250104408,
        "lon": -25.311637633192444,
        "alt_km": 416.43584655290215,
        "timestamp": "2025-12-10T05:46:12.575740+00:00",
        "meta_object_name": "STARLINK-35810",
        "meta_object_id": "2025-268U",
        "meta_epoch": "2025-12-09T20:00:01.999008",
        "meta_mean_motion": 15.50603947,
        "meta_eccentricity": 0.0002014,
        "meta_inclination": 43.0002,
        "meta_ra_of_asc_node": 138.1109,
        "meta_arg_of_pericenter": 278.0881,
        "meta_mean_anomaly": 172.0022,
        "meta_ephemeris_type": 0,
        "meta_classification_type": "U",
        "meta_norad_cat_id": 66575,
        "meta_element_set_no": 999,
        "meta_rev_at_epoch": 420,
        "meta_bstar": -0.0010515,
        "meta_mean_motion_dot": -0.00061601,
        "meta_mean_motion_ddot": 0,
        "tle_line1": "1 66575U 25268U   25343.83335647 -.00061601  00000+0 -10515-2 0  9997",
        "tle_line2": "2 66575  43.0002 138.1109 0002014 278.0881 172.0022 15.50603947  4204"
      },
      "geometry": {
        "type": "Point",
        "coordinates": [
          -25.311637633192444,
          -16.84381250104408
        ]
      }
    },
    {
      "type": "Feature",
      "properties": {
        "norad_id": 66576,
        "name": "STARLINK-35814",
        "group": "last-30-days",
        "lat": -18.074643771804027,
        "lon": -23.774656760132313,
        "alt_km": 416.3542574137882,
        "timestamp": "2025-12-10T05:46:12.575751+00:00",
        "meta_object_name": "STARLINK-35814",
        "meta_object_id": "2025-268V",
        "meta_epoch": "2025-12-09T20:00:01.999008",
        "meta_mean_motion": 15.50599061,
        "meta_eccentricity": 0.0002002,
        "meta_inclination": 43.0006,
        "meta_ra_of_asc_node": 138.106,
        "meta_arg_of_pericenter": 270.7796,
        "meta_mean_anomaly": 181.2348,
        "meta_ephemeris_type": 0,
        "meta_classification_type": "U",
        "meta_norad_cat_id": 66576,
        "meta_element_set_no": 999,
        "meta_rev_at_epoch": 420,
        "meta_bstar": -0.0010294,
        "meta_mean_motion_dot": -0.00060317,
        "meta_mean_motion_ddot": 0,
        "tle_line1": "1 66576U 25268V   25343.83335647 -.00060317  00000+0 -10294-2 0  9995",
        "tle_line2": "2 66576  43.0006 138.1060 0002002 270.7796 181.2348 15.50599061  4200"
      },
      "geometry": {
        "type": "Point",
        "coordinates": [
          -23.774656760132313,
          -18.074643771804027
        ]
      }
    },
    {
      "type": "Feature",
      "properties": {
        "norad_id": 66577,
        "name": "STARLINK-35815",
        "group": "last-30-days",
        "lat": -19.290128479517477,
        "lon": -22.21925352889167,
        "alt_km": 416.4603340835838,
        "timestamp": "2025-12-10T05:46:12.575762+00:00",
        "meta_object_name": "STARLINK-35815",
        "meta_object_id": "2025-268W",
        "meta_epoch": "2025-12-09T20:00:01.999008",
        "meta_mean_motion": 15.50573012,
        "meta_eccentricity": 0.0001948,
        "meta_inclination": 43.0006,
        "meta_ra_of_asc_node": 138.1014,
        "meta_arg_of_pericenter": 273.4655,
        "meta_mean_anomaly": 180.4728,
        "meta_ephemeris_type": 0,
        "meta_classification_type": "U",
        "meta_norad_cat_id": 66577,
        "meta_element_set_no": 999,
        "meta_rev_at_epoch": 420,
        "meta_bstar": -0.00021564,
        "meta_mean_motion_dot": -0.00012969,
        "meta_mean_motion_ddot": 0,
        "tle_line1": "1 66577U 25268W   25343.83335647 -.00012969  00000+0 -21564-3 0  9999",
        "tle_line2": "2 66577  43.0006 138.1014 0001948 273.4655 180.4728 15.50573012  4203"
      },
      "geometry": {
        "type": "Point",
        "coordinates": [
          -22.21925352889167,
          -19.290128479517477
        ]
      }
    },
    {
      "type": "Feature",
      "properties": {
        "norad_id": 66578,
        "name": "STARLINK-35743",
        "group": "last-30-days",
        "lat": -20.4971006712657,
        "lon": -20.634409831171226,
        "alt_km": 416.65723299721503,
        "timestamp": "2025-12-10T05:46:12.575772+00:00",
        "meta_object_name": "STARLINK-35743",
        "meta_object_id": "2025-268X",
        "meta_epoch": "2025-12-09T20:00:01.999008",
        "meta_mean_motion": 15.50608431,
        "meta_eccentricity": 0.0001845,
        "meta_inclination": 43.0007,
        "meta_ra_of_asc_node": 138.0966,
        "meta_arg_of_pericenter": 276.9434,
        "meta_mean_anomaly": 178.9001,
        "meta_ephemeris_type": 0,
        "meta_classification_type": "U",
        "meta_norad_cat_id": 66578,
        "meta_element_set_no": 999,
        "meta_rev_at_epoch": 420,
        "meta_bstar": -0.001228,
        "meta_mean_motion_dot": -0.00071805,
        "meta_mean_motion_ddot": 0,
        "tle_line1": "1 66578U 25268X   25343.83335647 -.00071805  00000+0 -12280-2 0  9998",
        "tle_line2": "2 66578  43.0007 138.0966 0001845 276.9434 178.9001 15.50608431  4209"
      },
      "geometry": {
        "type": "Point",
        "coordinates": [
          -20.634409831171226,
          -20.4971006712657
        ]
      }
    },
    {
      "type": "Feature",
      "properties": {
        "norad_id": 66579,
        "name": "STARLINK-35868",
        "group": "last-30-days",
        "lat": -21.683716055542178,
        "lon": -19.032248812460583,
        "alt_km": 416.62239051727465,
        "timestamp": "2025-12-10T05:46:12.575782+00:00",
        "meta_object_name": "STARLINK-35868",
        "meta_object_id": "2025-268Y",
        "meta_epoch": "2025-12-09T20:00:01.999008",
        "meta_mean_motion": 15.50603581,
        "meta_eccentricity": 0.0001974,
        "meta_inclination": 43.0006,
        "meta_ra_of_asc_node": 138.0916,
        "meta_arg_of_pericenter": 274.3008,
        "meta_mean_anomaly": 183.4593,
        "meta_ephemeris_type": 0,
        "meta_classification_type": "U",
        "meta_norad_cat_id": 66579,
        "meta_element_set_no": 999,
        "meta_rev_at_epoch": 420,
        "meta_bstar": -0.0010922,
        "meta_mean_motion_dot": -0.00063953,
        "meta_mean_motion_ddot": 0,
        "tle_line1": "1 66579U 25268Y   25343.83335647 -.00063953  00000+0 -10922-2 0  9995",
        "tle_line2": "2 66579  43.0006 138.0916 0001974 274.3008 183.4593 15.50603581  4204"
      },
      "geometry": {
        "type": "Point",
        "coordinates": [
          -19.032248812460583,
          -21.683716055542178
        ]
      }
    }
  ]
}